[{"OBJECT_NAME":"FLOCK 4G-20","OBJECT_ID":"2025-009AD","EPOCH":"2026-03-09T17:18:25.581888","MEAN_MOTION":15.3710341,"ECCENTRICITY":0.0001677,"INCLINATION":97.3941,"RA_OF_ASC_NODE":151.4523,"ARG_OF_PERICENTER":285.4351,"MEAN_ANOMALY":74.6708,"EPHEMERIS_TYPE":0,"CLASSIFICATION_TYPE":"U","NORAD_CAT_ID":62636,"ELEMENT_SET_NO":999,"REV_AT_EPOCH":6376,"BSTAR":0.0017944712,"MEAN_MOTION_DOT":0.00065564,"MEAN_MOTION_DDOT":0},{"OBJECT_NAME":"KUIPER-00223","OBJECT_ID":"2026-030V","EPOCH":"2026-03-09T17:18:46.022400","MEAN_MOTION":15.34146211,"ECCENTRICITY":0.00128242,"INCLINATION":51.8827,"RA_OF_ASC_NODE":219.2782,"ARG_OF_PERICENTER":59.0052,"MEAN_ANOMALY":301.2192,"EPHEMERIS_TYPE":0,"CLASSIFICATION_TYPE":"U","NORAD_CAT_ID":67783,"ELEMENT_SET_NO":999,"REV_AT_EPOCH":509,"BSTAR":0.00090645373,"MEAN_MOTION_DOT":0.00030225,"MEAN_MOTION_DDOT":0}]
