FLOCK 4G-20             
1 62636U 25009AD  26068.72112942  .00065564  00000+0  17945-2 0  9992
2 62636  97.3941 151.4523 0001677 285.4351  74.6708 15.37103410 63767
KUIPER-00223            
1 67783U 26030V   26068.72136600  .00030225  00000+0  90645-3 0  9997
2 67783  51.8827 219.2782 0012824  59.0052 301.2192 15.34146210  5092
